sat12706
1 12706U 81053BA  20046.79839777  .00000363  00000-0  34260-3 0  9992
2 12706  82.8806 237.0670 0113758  28.0994 343.6293 13.75880396920586
